[{"OBJECT_NAME":"STARLINK-2135","OBJECT_ID":"2021-005BM","EPOCH":"2026-03-09T06:41:25.174176","MEAN_MOTION":15.06388595,"ECCENTRICITY":0.00014279,"INCLINATION":53.0558,"RA_OF_ASC_NODE":33.4642,"ARG_OF_PERICENTER":97.2459,"MEAN_ANOMALY":262.8693,"EPHEMERIS_TYPE":0,"CLASSIFICATION_TYPE":"U","NORAD_CAT_ID":47408,"ELEMENT_SET_NO":999,"REV_AT_EPOCH":28340,"BSTAR":6.4833365e-5,"MEAN_MOTION_DOT":6.84e-6,"MEAN_MOTION_DDOT":0},{"OBJECT_NAME":"CZ-6A DEB","OBJECT_ID":"2024-126C","EPOCH":"2026-03-09T22:45:09.534528","MEAN_MOTION":15.08339588,"ECCENTRICITY":0.00034995,"INCLINATION":97.8272,"RA_OF_ASC_NODE":88.0703,"ARG_OF_PERICENTER":249.9832,"MEAN_ANOMALY":110.1019,"EPHEMERIS_TYPE":0,"CLASSIFICATION_TYPE":"U","NORAD_CAT_ID":60213,"ELEMENT_SET_NO":999,"REV_AT_EPOCH":9177,"BSTAR":0.0010886629,"MEAN_MOTION_DOT":0.00016868,"MEAN_MOTION_DDOT":0}]
